IRIDIUM 112             
1 41925U 17003J   25199.50048965  .00000228  00000+0  74186-4 0  9996
2 41925  86.3949 227.6812 0002357  92.0043 268.1422 14.34218199445443
IRIDIUM 111             
1 41926U 17003K   25199.48779973  .00000164  00000+0  51499-4 0  9995
2 41926  86.3950 227.7497 0002155  89.3292 270.8151 14.34219468445424
IRIDIUM 113             
1 42803U 17039A   25199.46776894 -.00000026  00000+0 -16358-4 0  9990
2 42803  86.3965 101.6886 0002306  81.8099 278.3358 14.34217325423357
IRIDIUM 123             
1 42804U 17039B   25199.57901470  .00000003  00000+0 -61630-5 0  9991
2 42804  86.4003 133.1109 0001909  77.4885 282.6525 14.34217719422138
IRIDIUM 120             
1 42805U 17039C   25199.46142452  .00000099  00000+0  28206-4 0  9992
2 42805  86.3956 101.5172 0001900  87.1054 273.0359 14.34217670423340
IRIDIUM 118             
1 42807U 17039E   25199.33165449  .00000052  00000+0  11500-4 0  9999
2 42807  86.4000 133.2136 0002387  82.2574 277.8892 14.34217332422098
IRIDIUM 117             
1 42808U 17039F   25199.55998711  .00000040  00000+0  72348-5 0  9995
2 42808  86.3999 133.0791 0002182  78.0696 282.0744 14.34217999422151
